STARLINK-37425          
1 68815U 26089P   26117.53791992 -.00314119  39806-4 -49554-3 0  9996
2 68815  97.2862 322.6896 0002831 167.3028 192.8324 16.03810818   714
