{
  "norad_id": 68815,
  "name": "STARLINK-37425",
  "history": [
    {
      "epoch": "2026-04-27T12:54:36.281088Z",
      "apogee_km": 265.75677729807376,
      "perigee_km": 261.996069297802,
      "latitude_deg": -2.5788482030799808e-05,
      "longitude_deg": -86.48786804848548,
      "height_km": 268.9168499770652,
      "semi_major_axis_km": 6642.013423297937,
      "eccentricity": 0.0002831,
      "inclination_deg": 97.2862,
      "raan_deg": 322.6896,
      "arg_perigee_deg": 167.3028,
      "mean_anomaly_deg": 192.8324,
      "mean_motion_rev_day": 16.03810818
    }
  ]
}